start=new Date('2022-12-08T00:00:00.000Z').valueOf();
sats=[{"MEAN_ANOMALY":"296.8806","ARG_OF_PERICENTER":"63.2351","OBJECT_TYPE":"PAYLOAD","INCLINATION":"53.0551","TLE_LINE1":"1 47665U 21012AX  22341.41525736 -.00001042  00000-0 -51061-4 0  9995","REF_FRAME":"TEME","LAUNCH_DATE":"2021-02-16","CENTER_NAME":"EARTH","RCS_SIZE":"LARGE","SITE":"AFETR","ECCENTRICITY":"0.00016450","CLASSIFICATION_TYPE":"U","OBJECT_ID":"2021-012AX","MEAN_MOTION_DDOT":"0.0000000000000","EPHEMERIS_TYPE":"0","GP_ID":"219740795","PERIOD":"95.592","MEAN_ELEMENT_THEORY":"SGP4","EPOCH":"2022-12-07T09:57:58.235904","MEAN_MOTION_DOT":"-0.00001042","BSTAR":"-0.00005106100000","REV_AT_EPOCH":"10123","PERIAPSIS":"546.089","NORAD_CAT_ID":"47665","APOAPSIS":"548.368","MEAN_MOTION":"15.06395120","TIME_SYSTEM":"UTC","COUNTRY_CODE":"US","FILE":"3684212","TLE_LINE2":"2 47665  53.0551 341.0554 0001645  63.2351 296.8806 15.06395120101235","ELEMENT_SET_NO":"999","RA_OF_ASC_NODE":"341.0554","DECAY_DATE":null,"OBJECT_NAME":"STARLINK-2056","SEMIMAJOR_AXIS":"6925.364"},{"TIME_SYSTEM":"UTC","COUNTRY_CODE":"US","MEAN_MOTION":"15.06394111","NORAD_CAT_ID":"47666","APOAPSIS":"548.550","SEMIMAJOR_AXIS":"6925.367","OBJECT_NAME":"STARLINK-2057","DECAY_DATE":null,"TLE_LINE2":"2 47666  53.0562 341.3670 0001903  54.3870 305.7296 15.06394111101236","RA_OF_ASC_NODE":"341.3670","ELEMENT_SET_NO":"999","FILE":"3684212","PERIOD":"95.593","EPHEMERIS_TYPE":"0","GP_ID":"219741044","REV_AT_EPOCH":"10123","PERIAPSIS":"545.914","BSTAR":"-0.00002245200000","EPOCH":"2022-12-07T09:52:42.799008","MEAN_MOTION_DOT":"-0.00000616","MEAN_ELEMENT_THEORY":"SGP4","LAUNCH_DATE":"2021-02-16","CENTER_NAME":"EARTH","REF_FRAME":"TEME","TLE_LINE1":"1 47666U 21012AY  22341.41160647 -.00000616  00000-0 -22452-4 0  9990","MEAN_MOTION_DDOT":"0.0000000000000","OBJECT_ID":"2021-012AY","ECCENTRICITY":"0.00019030","CLASSIFICATION_TYPE":"U","SITE":"AFETR","RCS_SIZE":"LARGE","OBJECT_TYPE":"PAYLOAD","MEAN_ANOMALY":"305.7296","ARG_OF_PERICENTER":"54.3870","INCLINATION":"53.0562"},{"INCLINATION":"53.0575","MEAN_ANOMALY":"282.9046","ARG_OF_PERICENTER":"77.2156","OBJECT_TYPE":"PAYLOAD","RCS_SIZE":"LARGE","SITE":"AFETR","ECCENTRICITY":"0.00018980","CLASSIFICATION_TYPE":"U","OBJECT_ID":"2021-012AZ","MEAN_MOTION_DDOT":"0.0000000000000","TLE_LINE1":"1 47667U 21012AZ  22341.59910341 -.00007453  00000-0 -48219-3 0  9998","REF_FRAME":"TEME","LAUNCH_DATE":"2021-02-16","CENTER_NAME":"EARTH","MEAN_ELEMENT_THEORY":"SGP4","EPOCH":"2022-12-07T14:22:42.534624","MEAN_MOTION_DOT":"-0.00007453","BSTAR":"-0.00048219000000","REV_AT_EPOCH":"10089","PERIAPSIS":"545.952","EPHEMERIS_TYPE":"0","GP_ID":"219739794","PERIOD":"95.593","FILE":"3684212","TLE_LINE2":"2 47667  53.0575   5.1760 0001898  77.2156 282.9046 15.06382610100891","ELEMENT_SET_NO":"999","RA_OF_ASC_NODE":"5.1760","OBJECT_NAME":"STARLINK-2058","DECAY_DATE":null,"SEMIMAJOR_AXIS":"6925.402","NORAD_CAT_ID":"47667","APOAPSIS":"548.581","MEAN_MOTION":"15.06382610","TIME_SYSTEM":"UTC","COUNTRY_CODE":"US"},{"FILE":"3684212","TLE_LINE2":"2 47668  53.0557 344.6762 0001616  60.1084 300.0065 15.06396823101215","ELEMENT_SET_NO":"999","RA_OF_ASC_NODE":"344.6762","OBJECT_NAME":"STARLINK-2059","DECAY_DATE":null,"SEMIMAJOR_AXIS":"6925.358","NORAD_CAT_ID":"47668","APOAPSIS":"548.342","MEAN_MOTION":"15.06396823","TIME_SYSTEM":"UTC","COUNTRY_CODE":"US","MEAN_ELEMENT_THEORY":"SGP4","EPOCH":"2022-12-07T16:59:16.060992","MEAN_MOTION_DOT":"-0.00000664","BSTAR":"-0.00002568500000","REV_AT_EPOCH":"10121","PERIAPSIS":"546.104","EPHEMERIS_TYPE":"0","GP_ID":"219740044","PERIOD":"95.592","RCS_SIZE":"LARGE","SITE":"AFETR","ECCENTRICITY":"0.00016160","CLASSIFICATION_TYPE":"U","OBJECT_ID":"2021-012BA","MEAN_MOTION_DDOT":"0.0000000000000","TLE_LINE1":"1 47668U 21012BA  22341.70782478 -.00000664  00000-0 -25685-4 0  9990","REF_FRAME":"TEME","LAUNCH_DATE":"2021-02-16","CENTER_NAME":"EARTH","INCLINATION":"53.0557","MEAN_ANOMALY":"300.0065","ARG_OF_PERICENTER":"60.1084","OBJECT_TYPE":"PAYLOAD"},{"EPOCH":"2022-12-07T18:48:33.137568","MEAN_MOTION_DOT":"0.00035444","MEAN_ELEMENT_THEORY":"SGP4","REV_AT_EPOCH":"10234","PERIAPSIS":"515.167","BSTAR":"0.00183980000000","EPHEMERIS_TYPE":"0","GP_ID":"219740295","PERIOD":"94.999","TLE_LINE2":"2 47669  53.0512 262.4718 0004856  85.6518 274.5030 15.15812058102343","RA_OF_ASC_NODE":"262.4718","ELEMENT_SET_NO":"999","FILE":"3684212","SEMIMAJOR_AXIS":"6896.651","DECAY_DATE":null,"OBJECT_NAME":"STARLINK-2060","MEAN_MOTION":"15.15812058","NORAD_CAT_ID":"47669","APOAPSIS":"521.865","TIME_SYSTEM":"UTC","COUNTRY_CODE":"US","INCLINATION":"53.0512","OBJECT_TYPE":"PAYLOAD","MEAN_ANOMALY":"274.5030","ARG_OF_PERICENTER":"85.6518","SITE":"AFETR","RCS_SIZE":"LARGE","MEAN_MOTION_DDOT":"0.0000000000000","OBJECT_ID":"2021-012BB","ECCENTRICITY":"0.00048560","CLASSIFICATION_TYPE":"U","TLE_LINE1":"1 47669U 21012BB  22341.78371687  .00035444  00000-0  18398-2 0  9998","LAUNCH_DATE":"2021-02-16","CENTER_NAME":"EARTH","REF_FRAME":"TEME"},{"INCLINATION":"53.0558","OBJECT_TYPE":"PAYLOAD","MEAN_ANOMALY":"305.7048","ARG_OF_PERICENTER":"54.4102","OBJECT_ID":"2021-012BC","MEAN_MOTION_DDOT":"0.0000000000000","ECCENTRICITY":"0.00017360","CLASSIFICATION_TYPE":"U","SITE":"AFETR","RCS_SIZE":"LARGE","LAUNCH_DATE":"2021-02-16","CENTER_NAME":"EARTH","REF_FRAME":"TEME","TLE_LINE1":"1 47670U 21012BC  22341.72256172  .00000254  00000-0  35936-4 0  9995","REV_AT_EPOCH":"10120","PERIAPSIS":"545.999","BSTAR":"0.00003593600000","EPOCH":"2022-12-07T17:20:29.332608","MEAN_MOTION_DOT":"0.00000254","MEAN_ELEMENT_THEORY":"SGP4","PERIOD":"95.592","EPHEMERIS_TYPE":"0","GP_ID":"219740544","SEMIMAJOR_AXIS":"6925.336","OBJECT_NAME":"STARLINK-2062","DECAY_DATE":null,"TLE_LINE2":"2 47670  53.0558 344.6185 0001736  54.4102 305.7048 15.06404037101207","ELEMENT_SET_NO":"999","RA_OF_ASC_NODE":"344.6185","FILE":"3684212","TIME_SYSTEM":"UTC","COUNTRY_CODE":"US","MEAN_MOTION":"15.06404037","NORAD_CAT_ID":"47670","APOAPSIS":"548.403"},{"EPHEMERIS_TYPE":"0","GP_ID":"219739294","PERIOD":"95.593","MEAN_ELEMENT_THEORY":"SGP4","EPOCH":"2022-12-07T16:53:57.308928","MEAN_MOTION_DOT":"0.00000250","BSTAR":"0.00003566200000","REV_AT_EPOCH":"10121","PERIAPSIS":"546.178","NORAD_CAT_ID":"47671","APOAPSIS":"548.308","MEAN_MOTION":"15.06390408","TIME_SYSTEM":"UTC","COUNTRY_CODE":"US","FILE":"3684212","TLE_LINE2":"2 47671  53.0575 344.6854 0001538  63.6420 296.4727 15.06390408101212","ELEMENT_SET_NO":"999","RA_OF_ASC_NODE":"344.6854","DECAY_DATE":null,"OBJECT_NAME":"STARLINK-2064","SEMIMAJOR_AXIS":"6925.378","MEAN_ANOMALY":"296.4727","ARG_OF_PERICENTER":"63.6420","OBJECT_TYPE":"PAYLOAD","INCLINATION":"53.0575","TLE_LINE1":"1 47671U 21012BD  22341.70413552  .00000250  00000-0  35662-4 0  9993","REF_FRAME":"TEME","LAUNCH_DATE":"2021-02-16","CENTER_NAME":"EARTH","RCS_SIZE":"LARGE","SITE":"AFETR","ECCENTRICITY":"0.00015380","CLASSIFICATION_TYPE":"U","OBJECT_ID":"2021-012BD","MEAN_MOTION_DDOT":"0.0000000000000"},{"MEAN_MOTION":"15.06402921","NORAD_CAT_ID":"47672","APOAPSIS":"548.022","TIME_SYSTEM":"UTC","COUNTRY_CODE":"US","TLE_LINE2":"2 47672  53.0559 334.7994 0001181  59.9996 300.1110 15.06402921101325","ELEMENT_SET_NO":"999","RA_OF_ASC_NODE":"334.7994","FILE":"3684212","SEMIMAJOR_AXIS":"6925.340","DECAY_DATE":null,"OBJECT_NAME":"STARLINK-2065","EPHEMERIS_TYPE":"0","GP_ID":"219739544","PERIOD":"95.592","EPOCH":"2022-12-07T16:23:25.217664","MEAN_MOTION_DOT":"0.00000797","MEAN_ELEMENT_THEORY":"SGP4","REV_AT_EPOCH":"10132","PERIAPSIS":"546.387","BSTAR":"0.00007235300000","TLE_LINE1":"1 47672U 21012BE  22341.68293076  .00000797  00000-0  72353-4 0  9992","LAUNCH_DATE":"2021-02-16","CENTER_NAME":"EARTH","REF_FRAME":"TEME","SITE":"AFETR","RCS_SIZE":"LARGE","OBJECT_ID":"2021-012BE","MEAN_MOTION_DDOT":"0.0000000000000","ECCENTRICITY":"0.00011810","CLASSIFICATION_TYPE":"U","OBJECT_TYPE":"PAYLOAD","MEAN_ANOMALY":"300.1110","ARG_OF_PERICENTER":"59.9996","INCLINATION":"53.0559"},{"GP_ID":"219740796","EPHEMERIS_TYPE":"0","PERIOD":"95.593","MEAN_MOTION_DOT":"-0.00001544","EPOCH":"2022-12-07T17:25:48.936576","MEAN_ELEMENT_THEORY":"SGP4","PERIAPSIS":"546.264","REV_AT_EPOCH":"10120","BSTAR":"-0.00008482000000","MEAN_MOTION":"15.06384397","APOAPSIS":"548.259","NORAD_CAT_ID":"47673","COUNTRY_CODE":"US","TIME_SYSTEM":"UTC","ELEMENT_SET_NO":"999","RA_OF_ASC_NODE":"344.6057","TLE_LINE2":"2 47673  53.0551 344.6057 0001440  66.6581 293.4560 15.06384397101207","FILE":"3684212","SEMIMAJOR_AXIS":"6925.396","DECAY_DATE":null,"OBJECT_NAME":"STARLINK-2066","OBJECT_TYPE":"PAYLOAD","ARG_OF_PERICENTER":"66.6581","MEAN_ANOMALY":"293.4560","INCLINATION":"53.0551","TLE_LINE1":"1 47673U 21012BF  22341.72626084 -.00001544  00000-0 -84820-4 0  9992","CENTER_NAME":"EARTH","LAUNCH_DATE":"2021-02-16","REF_FRAME":"TEME","SITE":"AFETR","RCS_SIZE":"LARGE","MEAN_MOTION_DDOT":"0.0000000000000","OBJECT_ID":"2021-012BF","CLASSIFICATION_TYPE":"U","ECCENTRICITY":"0.00014400"},{"OBJECT_ID":"2021-012BG","MEAN_MOTION_DDOT":"0.0000000000000","ECCENTRICITY":"0.00020920","CLASSIFICATION_TYPE":"U","SITE":"AFETR","RCS_SIZE":"LARGE","LAUNCH_DATE":"2021-02-16","CENTER_NAME":"EARTH","REF_FRAME":"TEME","TLE_LINE1":"1 47674U 21012BG  22341.74004453  .00001247  00000-0  10261-3 0  9990","INCLINATION":"53.0563","OBJECT_TYPE":"PAYLOAD","MEAN_ANOMALY":"310.5426","ARG_OF_PERICENTER":"49.5746","SEMIMAJOR_AXIS":"6925.348","OBJECT_NAME":"STARLINK-2067","DECAY_DATE":null,"TLE_LINE2":"2 47674  53.0563 344.5311 0002092  49.5746 310.5426 15.06400183101215","RA_OF_ASC_NODE":"344.5311","ELEMENT_SET_NO":"999","FILE":"3684212","TIME_SYSTEM":"UTC","COUNTRY_CODE":"US","MEAN_MOTION":"15.06400183","NORAD_CAT_ID":"47674","APOAPSIS":"548.662","REV_AT_EPOCH":"10121","PERIAPSIS":"545.764","BSTAR":"0.00010261000000","EPOCH":"2022-12-07T17:45:39.847392","MEAN_MOTION_DOT":"0.00001247","MEAN_ELEMENT_THEORY":"SGP4","PERIOD":"95.592","EPHEMERIS_TYPE":"0","GP_ID":"219741045"}];
